{"type": "FeatureCollection", "features": [ {"type": "Feature", "properties": {"norad_id": 34845, "name": "COSMOS 2251 DEB", "group": "cosmos-2251-debris", "lat": 37.254321843985636, "lon": 138.44653125154545, "alt_km": 742.7771799859165, "timestamp": "2025-12-24T18:55:56.467144+00:00", "meta": {"OBJECT_NAME": "COSMOS 2251 DEB", "OBJECT_ID": "1993-036ABP", "EPOCH": "2025-12-19T17:31:51.884832", "MEAN_MOTION": 14.45872035, "ECCENTRICITY": 0.00225932, "INCLINATION": 74.0244, "RA_OF_ASC_NODE": 135.3011, "ARG_OF_PERICENTER": 295.1391, "MEAN_ANOMALY": 64.7423, "EPHEMERIS_TYPE": 0, "CLASSIFICATION_TYPE": "U", "NORAD_CAT_ID": 34845, "ELEMENT_SET_NO": 999, "REV_AT_EPOCH": 87567, "BSTAR": 0.00020260782, "MEAN_MOTION_DOT": 6.95e-06, "MEAN_MOTION_DDOT": 0}, "tle": {"line1": "1 34845U 93036ABP 25353.73046163  .00000695  00000+0  20261-3 0  9996", "line2": "2 34845  74.0244 135.3011 0022593 295.1391  64.7423 14.45872035875670"}}, "geometry": {"type": "Point", "coordinates": [138.44653125154545, 37.254321843985636]}}, {"type": "Feature", "properties": {"norad_id": 34846, "name": "COSMOS 2251 DEB", "group": "cosmos-2251-debris", "lat": 36.29450371034425, "lon": -108.6163727910738, "alt_km": 732.9334808808944, "timestamp": "2025-12-24T18:55:56.467154+00:00", "meta": {"OBJECT_NAME": "COSMOS 2251 DEB", "OBJECT_ID": "1993-036ABQ", "EPOCH": "2025-12-24T02:10:04.777248", "MEAN_MOTION": 14.47274025, "ECCENTRICITY": 0.00262346, "INCLINATION": 74.0298, "RA_OF_ASC_NODE": 240.5486, "ARG_OF_PERICENTER": 305.5274, "MEAN_ANOMALY": 54.3438, "EPHEMERIS_TYPE": 0, "CLASSIFICATION_TYPE": "U", "NORAD_CAT_ID": 34846, "ELEMENT_SET_NO": 999, "REV_AT_EPOCH": 87568, "BSTAR": 0.00073029715, "MEAN_MOTION_DOT": 2.656e-05, "MEAN_MOTION_DDOT": 0}, "tle": {"line1": "1 34846U 93036ABQ 25358.09033307  .00002656  00000+0  73030-3 0  9998", "line2": "2 34846  74.0298 240.5486 0026234 305.5274  54.3438 14.47274025875686"}}, "geometry": {"type": "Point", "coordinates": [-108.6163727910738, 36.29450371034425]}}, {"type": "Feature", "properties": {"norad_id": 34852, "name": "COSMOS 2251 DEB", "group": "cosmos-2251-debris", "lat": 19.359412021932755, "lon": -113.41208822142669, "alt_km": 758.9223174165145, "timestamp": "2025-12-24T18:55:56.467164+00:00", "meta": {"OBJECT_NAME": "COSMOS 2251 DEB", "OBJECT_ID": "1993-036ABW", "EPOCH": "2025-12-22T10:01:54.526080", "MEAN_MOTION": 14.37012127, "ECCENTRICITY": 0.00166159, "INCLINATION": 74.0324, "RA_OF_ASC_NODE": 245.1729, "ARG_OF_PERICENTER": 346.342, "MEAN_ANOMALY": 13.7281, "EPHEMERIS_TYPE": 0, "CLASSIFICATION_TYPE": "U", "NORAD_CAT_ID": 34852, "ELEMENT_SET_NO": 999, "REV_AT_EPOCH": 87673, "BSTAR": 0.00010888477, "MEAN_MOTION_DOT": 2.97e-06, "MEAN_MOTION_DDOT": 0}, "tle": {"line1": "1 34852U 93036ABW 25356.41799220  .00000297  00000+0  10888-3 0  9993", "line2": "2 34852  74.0324 245.1729 0016615 346.3420  13.7281 14.37012127876736"}}, "geometry": {"type": "Point", "coordinates": [-113.41208822142669, 19.359412021932755]}}, {"type": "Feature", "properties": {"norad_id": 34854, "name": "COSMOS 2251 DEB", "group": "cosmos-2251-debris", "lat": -21.714230967008902, "lon": -38.48887712214509, "alt_km": 609.9328409593472, "timestamp": "2025-12-24T18:55:56.467174+00:00", "meta": {"OBJECT_NAME": "COSMOS 2251 DEB", "OBJECT_ID": "1993-036ABY", "EPOCH": "2025-12-24T03:22:47.701632", "MEAN_MOTION": 14.76734417, "ECCENTRICITY": 0.00659344, "INCLINATION": 74.0296, "RA_OF_ASC_NODE": 136.2324, "ARG_OF_PERICENTER": 245.6439, "MEAN_ANOMALY": 113.7843, "EPHEMERIS_TYPE": 0, "CLASSIFICATION_TYPE": "U", "NORAD_CAT_ID": 34854, "ELEMENT_SET_NO": 999, "REV_AT_EPOCH": 72050, "BSTAR": 0.00083194152, "MEAN_MOTION_DOT": 6.009e-05, "MEAN_MOTION_DDOT": 0}, "tle": {"line1": "1 34854U 93036ABY 25358.14082988  .00006009  00000+0  83194-3 0  9990", "line2": "2 34854  74.0296 136.2324 0065934 245.6439 113.7843 14.76734417720500"}}, "geometry": {"type": "Point", "coordinates": [-38.48887712214509, -21.714230967008902]}}, {"type": "Feature", "properties": {"norad_id": 34856, "name": "COSMOS 2251 DEB", "group": "cosmos-2251-debris", "lat": 53.8636347057493, "lon": -143.08541507609172, "alt_km": 534.5516231866259, "timestamp": "2025-12-24T18:55:56.467184+00:00", "meta": {"OBJECT_NAME": "COSMOS 2251 DEB", "OBJECT_ID": "1993-036ACA", "EPOCH": "2025-12-24T04:10:55.140384", "MEAN_MOTION": 15.06616552, "ECCENTRICITY": 0.00311937, "INCLINATION": 73.9961, "RA_OF_ASC_NODE": 61.325, "ARG_OF_PERICENTER": 196.9043, "MEAN_ANOMALY": 194.1311, "EPHEMERIS_TYPE": 0, "CLASSIFICATION_TYPE": "U", "NORAD_CAT_ID": 34856, "ELEMENT_SET_NO": 999, "REV_AT_EPOCH": 89284, "BSTAR": 0.0017474499, "MEAN_MOTION_DOT": 0.00026244, "MEAN_MOTION_DDOT": 0}, "tle": {"line1": "1 34856U 93036ACA 25358.17424931  .00026244  00000+0  17474-2 0  9993", "line2": "2 34856  73.9961  61.3250 0031193 196.9043 194.1311 15.06616552892847"}}, "geometry": {"type": "Point", "coordinates": [-143.08541507609172, 53.8636347057493]}}, {"type": "Feature", "properties": {"norad_id": 34857, "name": "COSMOS 2251 DEB", "group": "cosmos-2251-debris", "lat": -55.2578192518132, "lon": -71.74044985823986, "alt_km": 664.0525087970518, "timestamp": "2025-12-24T18:55:56.467194+00:00", "meta": {"OBJECT_NAME": "COSMOS 2251 DEB", "OBJECT_ID": "1993-036ACB", "EPOCH": "2025-12-23T07:32:58.871328", "MEAN_MOTION": 14.58991882, "ECCENTRICITY": 0.00654006, "INCLINATION": 74.0154, "RA_OF_ASC_NODE": 86.6575, "ARG_OF_PERICENTER": 209.1339, "MEAN_ANOMALY": 208.8185, "EPHEMERIS_TYPE": 0, "CLASSIFICATION_TYPE": "U", "NORAD_CAT_ID": 34857, "ELEMENT_SET_NO": 999, "REV_AT_EPOCH": 88055, "BSTAR": 0.0010820228, "MEAN_MOTION_DOT": 5.205e-05, "MEAN_MOTION_DDOT": 0}, "tle": {"line1": "1 34857U 93036ACB 25357.31457027  .00005205  00000+0  10820-2 0  9993", "line2": "2 34857  74.0154  86.6575 0065400 209.1339 208.8185 14.58991882880552"}}, "geometry": {"type": "Point", "coordinates": [-71.74044985823986, -55.2578192518132]}}, {"type": "Feature", "properties": {"norad_id": 34859, "name": "COSMOS 2251 DEB", "group": "cosmos-2251-debris", "lat": 48.92406479009986, "lon": 115.37072676301585, "alt_km": 511.7827583203607, "timestamp": "2025-12-24T18:55:56.467205+00:00", "meta": {"OBJECT_NAME": "COSMOS 2251 DEB", "OBJECT_ID": "1993-036ACD", "EPOCH": "2025-12-24T04:10:42.368736", "MEAN_MOTION": 15.16428832, "ECCENTRICITY": 0.00014059, "INCLINATION": 74.0269, "RA_OF_ASC_NODE": 315.8379, "ARG_OF_PERICENTER": 30.9483, "MEAN_ANOMALY": 342.6844, "EPHEMERIS_TYPE": 0, "CLASSIFICATION_TYPE": "U", "NORAD_CAT_ID": 34859, "ELEMENT_SET_NO": 999, "REV_AT_EPOCH": 88532, "BSTAR": 0.0038295691, "MEAN_MOTION_DOT": 0.00075227, "MEAN_MOTION_DDOT": 0}, "tle": {"line1": "1 34859U 93036ACD 25358.17410149  .00075227  00000+0  38296-2 0  9992", "line2": "2 34859  74.0269 315.8379 0001405  30.9483 342.6844 15.16428832885329"}}, "geometry": {"type": "Point", "coordinates": [115.37072676301585, 48.92406479009986]}}, {"type": "Feature", "properties": {"norad_id": 34861, "name": "COSMOS 2251 DEB", "group": "cosmos-2251-debris", "lat": -22.28638212368416, "lon": -147.02953064529197, "alt_km": 567.5269434466072, "timestamp": "2025-12-24T18:55:56.467216+00:00", "meta": {"OBJECT_NAME": "COSMOS 2251 DEB", "OBJECT_ID": "1993-036ACF", "EPOCH": "2025-12-23T20:27:37.747872", "MEAN_MOTION": 15.03229594, "ECCENTRICITY": 0.00082989, "INCLINATION": 74.0174, "RA_OF_ASC_NODE": 28.1383, "ARG_OF_PERICENTER": 17.2491, "MEAN_ANOMALY": 160.8875, "EPHEMERIS_TYPE": 0, "CLASSIFICATION_TYPE": "U", "NORAD_CAT_ID": 34861, "ELEMENT_SET_NO": 999, "REV_AT_EPOCH": 88259, "BSTAR": 0.0024555152, "MEAN_MOTION_DOT": 0.00033393, "MEAN_MOTION_DDOT": 0}, "tle": {"line1": "1 34861U 93036ACF 25357.85252023  .00033393  00000+0  24555-2 0  9995", "line2": "2 34861  74.0174  28.1383 0008298  17.2491 160.8875 15.03229594882590"}}, "geometry": {"type": "Point", "coordinates": [-147.02953064529197, -22.28638212368416]}}, {"type": "Feature", "properties": {"norad_id": 34874, "name": "COSMOS 2251 DEB", "group": "cosmos-2251-debris", "lat": 28.9044705762526, "lon": -137.45483677183395, "alt_km": 760.3406591969951, "timestamp": "2025-12-24T18:55:56.467226+00:00", "meta": {"OBJECT_NAME": "COSMOS 2251 DEB", "OBJECT_ID": "1993-036ACM", "EPOCH": "2025-12-24T05:08:17.744928", "MEAN_MOTION": 14.36361305, "ECCENTRICITY": 0.00505021, "INCLINATION": 74.0392, "RA_OF_ASC_NODE": 52.692, "ARG_OF_PERICENTER": 74.2101, "MEAN_ANOMALY": 344.1486, "EPHEMERIS_TYPE": 0, "CLASSIFICATION_TYPE": "U", "NORAD_CAT_ID": 34874, "ELEMENT_SET_NO": 999, "REV_AT_EPOCH": 87209, "BSTAR": 0.00080771764, "MEAN_MOTION_DOT": 2.374e-05, "MEAN_MOTION_DDOT": 0}, "tle": {"line1": "1 34874U 93036ACM 25358.21409427  .00002374  00000+0  80772-3 0  9991", "line2": "2 34874  74.0392  52.6920 0050502  74.2101 344.1486 14.36361305872092"}}, "geometry": {"type": "Point", "coordinates": [-137.45483677183395, 28.9044705762526]}}, {"type": "Feature", "properties": {"norad_id": 34875, "name": "COSMOS 2251 DEB", "group": "cosmos-2251-debris", "lat": 27.134072159366767, "lon": 144.07121529441562, "alt_km": 735.0183186680079, "timestamp": "2025-12-24T18:55:56.467237+00:00", "meta": {"OBJECT_NAME": "COSMOS 2251 DEB", "OBJECT_ID": "1993-036ACN", "EPOCH": "2025-12-24T03:03:13.111776", "MEAN_MOTION": 14.48963213, "ECCENTRICITY": 0.00162826, "INCLINATION": 74.0436, "RA_OF_ASC_NODE": 136.8791, "ARG_OF_PERICENTER": 259.8934, "MEAN_ANOMALY": 278.6319, "EPHEMERIS_TYPE": 0, "CLASSIFICATION_TYPE": "U", "NORAD_CAT_ID": 34875, "ELEMENT_SET_NO": 999, "REV_AT_EPOCH": 87920, "BSTAR": 0.00046116262, "MEAN_MOTION_DOT": 1.723e-05, "MEAN_MOTION_DDOT": 0}, "tle": {"line1": "1 34875U 93036ACN 25358.12723509  .00001723  00000+0  46116-3 0  9993", "line2": "2 34875  74.0436 136.8791 0016282 259.8934 278.6319 14.48963213879200"}}, "geometry": {"type": "Point", "coordinates": [144.07121529441562, 27.134072159366767]}}]}